HAWK-11B                
1 62379U 24247C   26068.44730104  .00009093  00000+0  32842-3 0  9993
2 62379  45.0161 115.7610 0004690 333.0326  27.0314 15.28847070 67738
STARLINK-34636          
1 64915U 25157M   26068.23485151  .00036183  00000+0  12265-2 0  9994
2 64915  53.1617 347.8170 0001852 143.2793 216.8335 15.30235884 36056
